STARLINK-35043          
1 65436U 25194C   26068.54821914  .00003389  00000+0  26824-3 0  9998
2 65436  97.6045 285.0493 0002262  74.6485 285.4989 15.01266309 29676
ION SCV-021             
1 67483U 25276DT  26068.74606001  .00002399  00000+0  21145-3 0  9994
2 67483  97.5322 142.8125 0013138  96.8695 263.4023 14.97286526  7726
